{"type":"FeatureCollection","attribution":"© OpenStreetMap katkıcıları, ODbL","features":[{"type":"Feature","properties":{"line":"M1","osm_relations":[305496,4289712]},"geometry":{"type":"MultiLineString","coordinates":[[[28.95061,41.00517],[28.95051,41.0065]],[[28.95051,41.0065],[28.95045,41.00714]],[[28.95045,41.00714],[28.95028,41.00905],[28.95004,41.01009],[28.94966,41.01088],[28.94909,41.01152],[28.94739,41.01262],[28.94569,41.01348],[28.94042,41.01685],[28.92948,41.02468],[28.92859,41.02539],[28.928,41.02601]],[[28.928,41.02601],[28.92743,41.02681],[28.92628,41.02895]],[[28.92628,41.02895],[28.92597,41.02943],[28.92514,41.03025],[28.92414,41.03083],[28.92351,41.03111]],[[28.92351,41.03111],[28.92241,41.0316],[28.92152,41.03217],[28.92095,41.03278],[28.92069,41.03326]],[[28.92069,41.03326],[28.92061,41.03342]],[[28.92061,41.03342],[28.92003,41.03486],[28.91942,41.03613],[28.91882,41.03689],[28.91833,41.03731]],[[28.91833,41.03731],[28.91783,41.03768]],[[28.91783,41.03768],[28.91758,41.03783]],[[28.91758,41.03783],[28.91733,41.03798]],[[28.91733,41.03798],[28.91513,41.03928],[28.91406,41.03972],[28.91316,41.03999],[28.91163,41.04033],[28.90933,41.04065]],[[28.90933,41.04065],[28.90907,41.04068]],[[28.90907,41.04068],[28.90723,41.04091],[28.90481,41.04111],[28.90342,41.04136]],[[28.90342,41.04136],[28.90265,41.04151],[28.90165,41.0418],[28.90122,41.04206],[28.90068,41.04259]],[[28.90068,41.04259],[28.90032,41.0431],[28.90021,41.04338],[28.90011,41.04388],[28.90017,41.04442],[28.9005,41.04551],[28.90057,41.04589],[28.90049,41.04643],[28.90031,41.04691],[28.89996,41.04741],[28.89968,41.0477],[28.89899,41.04816]],[[28.89899,41.04816],[28.89802,41.04853]],[[28.89802,41.04853],[28.89758,41.04863],[28.89677,41.04866],[28.89546,41.04851],[28.8944,41.04819],[28.89396,41.04797],[28.89344,41.0476]],[[28.89344,41.0476],[28.8932,41.04741]],[[28.8932,41.04741],[28.89278,41.04692],[28.89258,41.04654],[28.89248,41.04616],[28.89245,41.04558]],[[28.89245,41.04558],[28.89247,41.04529]],[[28.89247,41.04529],[28.89261,41.04461],[28.89275,41.04423],[28.89321,41.04346],[28.89364,41.04301]],[[28.89364,41.04301],[28.89381,41.04283]],[[28.89381,41.04283],[28.89407,41.04258]],[[28.89409,41.04254],[28.89407,41.04258]],[[28.89475,41.0409],[28.89473,41.04137],[28.89464,41.04165],[28.89409,41.04254]],[[28.8945,41.03942],[28.89475,41.0409]],[[28.89443,41.0391],[28.8945,41.03942]],[[28.89443,41.0391],[28.89425,41.03866]],[[28.89425,41.03866],[28.8942,41.0385]],[[28.8942,41.0385],[28.894,41.03793],[28.89393,41.03725],[28.89402,41.03663],[28.89413,41.03628],[28.89441,41.03573],[28.89567,41.03435],[28.89631,41.03343]],[[28.89631,41.03343],[28.89668,41.03276],[28.89723,41.03138],[28.89744,41.03103],[28.89844,41.02968],[28.89866,41.02926],[28.89878,41.02886],[28.89886,41.02837],[28.89901,41.0247],[28.89907,41.02409],[28.89926,41.0233],[28.89976,41.0219]],[[28.89976,41.0219],[28.90063,41.01944],[28.90072,41.01899]],[[28.90072,41.01899],[28.90077,41.01866],[28.90073,41.01806],[28.90014,41.01598],[28.89991,41.01387],[28.8998,41.0133],[28.89954,41.0127],[28.89928,41.01231],[28.8985,41.01134]],[[28.8985,41.01134],[28.89702,41.00954],[28.89675,41.00912],[28.89636,41.00829],[28.89588,41.00653],[28.89573,41.00614],[28.89545,41.0056],[28.89366,41.00351]],[[28.89366,41.00351],[28.89311,41.00291],[28.89279,41.00264],[28.89223,41.00229],[28.8915,41.00199],[28.89069,41.0018],[28.88718,41.0015],[28.88637,41.00135],[28.88553,41.00107]],[[28.88553,41.00107],[28.88443,41.00055]],[[28.88443,41.00055],[28.88158,40.99905],[28.87849,40.9972],[28.87749,40.99683],[28.87661,40.99669],[28.87605,40.99666]],[[28.87605,40.99666],[28.86986,40.99647],[28.86615,40.99607],[28.86389,40.99566],[28.86265,40.99532],[28.86081,40.99458],[28.85731,40.99278]],[[28.85731,40.99278],[28.85636,40.99232],[28.85559,40.99202],[28.85253,40.99105]],[[28.85253,40.99105],[28.85203,40.99095]],[[28.85203,40.99095],[28.85119,40.99088],[28.85053,40.99089]],[[28.85053,40.99089],[28.84686,40.99132],[28.84204,40.99166],[28.84112,40.99161],[28.84038,40.99143],[28.83963,40.99111],[28.83674,40.98944],[28.8355,40.98867],[28.83478,40.98834]],[[28.83478,40.98834],[28.83421,40.98818],[28.83251,40.98798],[28.83125,40.98774],[28.83027,40.98741],[28.827,40.98609],[28.82443,40.98528]],[[28.82443,40.98528],[28.82279,40.98477],[28.82223,40.98449]],[[28.82223,40.98449],[28.82164,40.98411],[28.82129,40.98376],[28.82102,40.98334],[28.82079,40.98272],[28.82077,40.98229],[28.82085,40.9806],[28.8209,40.98026],[28.82118,40.97922]],[[28.95042,41.0065],[28.95053,41.00516]],[[28.95042,41.0065],[28.95045,41.00714]],[[28.89364,41.04301],[28.89379,41.04282]],[[28.89379,41.04282],[28.89404,41.04252]],[[28.89404,41.04252],[28.89456,41.04163],[28.89462,41.04138],[28.89461,41.04092]],[[28.89461,41.04092],[28.89436,41.03943]],[[28.89436,41.03943],[28.89418,41.03891],[28.89305,41.03756],[28.89258,41.03721],[28.89194,41.03694]],[[28.89194,41.03694],[28.89105,41.03678],[28.89019,41.03683]],[[28.89019,41.03683],[28.88945,41.03706],[28.88907,41.03723],[28.88857,41.03755],[28.88806,41.03801],[28.88784,41.03826],[28.88581,41.04129]],[[28.88581,41.04129],[28.88472,41.04259],[28.88388,41.04327],[28.88331,41.04351],[28.88215,41.04375],[28.88153,41.04379],[28.88057,41.04371],[28.88007,41.04359],[28.87908,41.04314],[28.87725,41.04218],[28.87638,41.04167],[28.87405,41.03947],[28.87107,41.03709],[28.86847,41.03517],[28.8676,41.03464],[28.86708,41.03444],[28.86651,41.0343],[28.86528,41.0341],[28.86423,41.03404],[28.86357,41.03407],[28.85475,41.03495],[28.85368,41.0351],[28.85156,41.03558],[28.8479,41.037],[28.84751,41.03707],[28.84672,41.03707],[28.84548,41.03683],[28.84495,41.03663],[28.84447,41.03639],[28.8439,41.03591],[28.84347,41.03539],[28.84309,41.03468],[28.84251,41.03311]],[[28.84251,41.03311],[28.84195,41.03109]]]}},{"type":"Feature","properties":{"line":"M2","osm_relations":[11341406,7719796]},"geometry":{"type":"MultiLineString","coordinates":[[[28.95007,41.00517],[28.95264,41.00568],[28.95703,41.00666],[28.9577,41.00684],[28.9585,41.00716],[28.95875,41.00733],[28.95916,41.00772],[28.95944,41.00825],[28.95968,41.00922],[28.95978,41.01049]],[[28.95978,41.01049],[28.96,41.01349]],[[28.96,41.01349],[28.96008,41.01449],[28.9602,41.01499],[28.96048,41.0157],[28.96078,41.0162],[28.96177,41.0175],[28.96346,41.01932]],[[28.96346,41.01932],[28.9699,41.02601]],[[28.9699,41.02601],[28.9709,41.02704],[28.9713,41.02738],[28.97488,41.02922]],[[28.97488,41.02922],[28.97629,41.02998],[28.97715,41.0305],[28.98436,41.03517],[28.9848,41.03558],[28.98509,41.03595],[28.98525,41.03631],[28.98603,41.03893],[28.98672,41.04097],[28.98684,41.04147],[28.9869,41.04199],[28.9868,41.04449],[28.98683,41.04527],[28.98692,41.04593],[28.98773,41.04866],[28.98783,41.04948],[28.98787,41.05109],[28.98779,41.05181],[28.98736,41.05419],[28.98678,41.05879],[28.98689,41.05973],[28.9872,41.06039],[28.98765,41.06098],[28.98794,41.0613],[28.99196,41.0638],[28.99583,41.06635],[28.99641,41.0666],[28.99688,41.06677],[28.99788,41.06692],[29.00519,41.06745],[29.00668,41.06767],[29.00848,41.06808],[29.0103,41.06867],[29.01372,41.06993],[29.01462,41.07039],[29.01489,41.07059],[29.01516,41.0709],[29.01557,41.07152],[29.01576,41.07233],[29.01578,41.07285],[29.01565,41.07342],[29.01452,41.07594]],[[29.01452,41.07594],[29.01323,41.07795]],[[29.01323,41.07795],[29.01203,41.07959],[29.01129,41.0805],[29.00977,41.08207],[29.00872,41.08331],[29.00843,41.08376],[29.00774,41.08542],[29.00695,41.08692],[29.00632,41.08834],[29.00504,41.09177],[29.00495,41.0921],[29.00495,41.09234]],[[29.02602,41.13569],[29.02507,41.13132],[29.02506,41.13085],[29.02513,41.13009],[29.02538,41.1285],[29.02554,41.12702],[29.02551,41.12652],[29.0254,41.12605],[29.02423,41.12303],[29.02407,41.12241],[29.02402,41.12187],[29.02402,41.12139],[29.02431,41.11885],[29.02463,41.11409],[29.02555,41.11077],[29.02563,41.11026],[29.02558,41.10996],[29.02543,41.10963],[29.0252,41.10932],[29.02492,41.10904],[29.02455,41.10878],[29.02395,41.10847],[29.02366,41.10838],[29.02291,41.10818],[29.01778,41.10752],[29.01699,41.10738],[29.01628,41.10719],[29.01487,41.10667],[29.01409,41.10629],[29.01286,41.10557],[29.00954,41.10329],[29.00872,41.10263],[29.00799,41.10196],[29.00733,41.10109],[29.00703,41.10058],[29.00687,41.10013],[29.00581,41.09585],[29.00498,41.09279],[29.00495,41.09234]],[[29.02602,41.13569],[29.02639,41.13692],[29.02678,41.13741],[29.02784,41.13808],[29.0306,41.13966],[29.03324,41.14125]],[[29.00557,41.09416],[29.0064,41.09669],[29.00639,41.09718],[29.00624,41.09781],[29.00609,41.09821],[29.00568,41.09876],[29.00479,41.0996],[29.00398,41.10012]],[[29.00398,41.10012],[29.00288,41.10059],[29.00213,41.10079],[29.00039,41.1011],[28.99899,41.10122],[28.99779,41.10121],[28.99574,41.10129]]]}},{"type":"Feature","properties":{"line":"M3","osm_relations":[4289797]},"geometry":{"type":"MultiLineString","coordinates":[[[28.86798,40.97356],[28.87051,40.97322],[28.87097,40.97322],[28.87205,40.97334],[28.87485,40.97389],[28.8756,40.97411],[28.87606,40.97431],[28.87696,40.97491],[28.8775,40.97559],[28.87775,40.97599],[28.87787,40.97629],[28.8779,40.97665],[28.87779,40.97714],[28.87767,40.97744],[28.87676,40.97869],[28.87515,40.98057],[28.87247,40.98454],[28.87212,40.98545],[28.87206,40.98599],[28.87203,40.98668],[28.8721,40.98766],[28.87218,40.98801],[28.87251,40.98892],[28.8728,40.98947],[28.87336,40.9903],[28.87382,40.99085],[28.87579,40.99273],[28.87602,40.99303],[28.87617,40.99333],[28.87635,40.99407],[28.87639,40.99489],[28.87632,40.99551],[28.87621,40.99596],[28.8761,40.99626],[28.87442,40.99926],[28.87382,41.00015],[28.87367,41.00063],[28.87352,41.00175],[28.87347,41.00283],[28.8734,41.0031],[28.87323,41.00332],[28.87121,41.00537],[28.86678,41.01077],[28.86426,41.01305],[28.86355,41.01372],[28.86304,41.01429],[28.86215,41.01548],[28.86184,41.0161],[28.86137,41.01737],[28.86098,41.01788],[28.86063,41.01817],[28.86011,41.01851],[28.85701,41.01993],[28.85537,41.02045],[28.85242,41.02119],[28.85144,41.02161],[28.85086,41.02196],[28.8501,41.02264],[28.8495,41.02341],[28.84906,41.02415]],[[28.84906,41.02415],[28.84762,41.0268],[28.84718,41.02747],[28.84681,41.02775],[28.84544,41.02859],[28.84494,41.029],[28.84476,41.02921],[28.84223,41.0335]],[[28.84223,41.0335],[28.84131,41.03503],[28.84091,41.03547],[28.83965,41.03638],[28.83767,41.03737],[28.83706,41.03787],[28.83671,41.03838],[28.8363,41.03964],[28.83594,41.04121],[28.83544,41.04282],[28.83414,41.046],[28.83089,41.05169],[28.83042,41.05259],[28.83031,41.05317],[28.83032,41.05345],[28.831,41.05665],[28.83106,41.05716],[28.83102,41.05774],[28.83088,41.05847],[28.83061,41.05928],[28.83003,41.06036],[28.82816,41.06309],[28.82676,41.06448],[28.82539,41.06568],[28.82431,41.06655],[28.82214,41.06785],[28.82084,41.06835],[28.81928,41.06873],[28.81787,41.06893],[28.8073,41.06934],[28.80637,41.06951],[28.80575,41.06974],[28.80525,41.07008],[28.79951,41.07525],[28.79754,41.07805],[28.79739,41.07853],[28.79731,41.07924],[28.79732,41.0799],[28.79739,41.08032],[28.79794,41.08222],[28.79811,41.08335],[28.7981,41.08447],[28.79777,41.08597],[28.79705,41.08753],[28.79665,41.08828],[28.79588,41.08969],[28.79547,41.0903],[28.79192,41.09323],[28.79135,41.09378],[28.79098,41.09445],[28.79085,41.09512],[28.79085,41.09582],[28.79115,41.0969],[28.7917,41.09845],[28.79208,41.09907],[28.7926,41.09973],[28.79375,41.10051],[28.80087,41.10344],[28.80111,41.10359],[28.80137,41.10389],[28.80151,41.10434],[28.80158,41.10614],[28.80164,41.11019],[28.80143,41.11293],[28.80125,41.11345],[28.80109,41.11378],[28.80087,41.11409],[28.8006,41.11434],[28.80024,41.11457],[28.79944,41.11492],[28.799,41.11504],[28.79777,41.11523],[28.79647,41.11517],[28.79545,41.115],[28.79376,41.11458],[28.78618,41.11215],[28.78559,41.11189],[28.78511,41.1116],[28.78472,41.11129],[28.78408,41.11049],[28.78365,41.10977],[28.7835,41.10926],[28.78344,41.10876],[28.78347,41.10622],[28.78342,41.10551],[28.78326,41.10511],[28.78312,41.10492]],[[28.78312,41.10492],[28.78275,41.10453],[28.78246,41.10432],[28.78165,41.10387],[28.78045,41.1036],[28.77936,41.10348]],[[28.77936,41.10348],[28.77617,41.10313],[28.77429,41.103],[28.77325,41.10287],[28.77229,41.10286],[28.77133,41.103],[28.77051,41.1033],[28.77003,41.10359],[28.76964,41.10389],[28.76907,41.10444],[28.76872,41.10505],[28.76783,41.1087],[28.76657,41.11434],[28.76639,41.11601],[28.76635,41.11737],[28.76638,41.11903]]]}},{"type":"Feature","properties":{"line":"M4","osm_relations":[2396287]},"geometry":{"type":"MultiLineString","coordinates":[[[29.02222,40.99049],[29.02353,40.99147],[29.02377,40.99161]],[[29.02377,40.99161],[29.02433,40.99194]],[[29.02433,40.99194],[29.02548,40.99251],[29.02735,40.99371],[29.02789,40.99419],[29.02837,40.99478],[29.02879,40.99558],[29.02998,40.99842],[29.03123,41.00202],[29.03153,41.00242],[29.03201,41.00285],[29.03229,41.00303],[29.03347,41.00352],[29.03415,41.00367],[29.03556,41.00367],[29.03693,41.00352],[29.04088,41.00285],[29.04333,41.00239],[29.04549,41.00194],[29.05258,41.00063],[29.05505,40.9999],[29.06098,40.99753],[29.06943,40.99442],[29.07146,40.9936],[29.0759,40.99152],[29.08501,40.98798],[29.08597,40.98751],[29.08689,40.98698],[29.08886,40.98543],[29.09165,40.98352],[29.09387,40.98224],[29.09737,40.97968],[29.09789,40.97913],[29.09836,40.97822],[29.09913,40.97602],[29.0999,40.97411],[29.10057,40.97218],[29.10305,40.96744],[29.10448,40.96526],[29.10569,40.96385],[29.10789,40.9617],[29.12117,40.94943],[29.12264,40.94827],[29.12806,40.94447],[29.13543,40.93886],[29.14594,40.93048],[29.14733,40.92927],[29.14877,40.9281],[29.14921,40.92768],[29.14973,40.92711],[29.15096,40.92554],[29.15146,40.92505],[29.15187,40.92474],[29.15233,40.92447],[29.15574,40.92336],[29.16423,40.92139],[29.1696,40.91969],[29.17069,40.91927],[29.17331,40.91805],[29.17396,40.9177],[29.17467,40.91741],[29.17914,40.91596],[29.1814,40.91534],[29.18323,40.91496],[29.18861,40.91427],[29.18963,40.91402],[29.19341,40.91274],[29.1993,40.91064],[29.20524,40.90884],[29.20876,40.90764],[29.2095,40.90733],[29.21211,40.90599],[29.21417,40.90473],[29.22265,40.89933],[29.22456,40.89818],[29.22568,40.89737],[29.23023,40.89435],[29.23774,40.889],[29.24017,40.8874],[29.2436,40.88499]],[[29.2436,40.88499],[29.24461,40.88437]],[[29.24461,40.88437],[29.24671,40.88301],[29.24773,40.88246],[29.25042,40.88133],[29.2513,40.88108],[29.25189,40.881]],[[29.25189,40.881],[29.25382,40.88087],[29.25481,40.8809],[29.25694,40.8814],[29.25829,40.88182],[29.25997,40.88268],[29.26073,40.88348],[29.26133,40.88446],[29.26204,40.88605],[29.26246,40.88752]],[[29.26246,40.88752],[29.26284,40.88992]],[[29.26284,40.88992],[29.26312,40.89143],[29.26482,40.89603],[29.26529,40.89685],[29.26581,40.89753],[29.26738,40.89892],[29.26872,40.89988],[29.27035,40.90126],[29.27152,40.90202],[29.27293,40.90273],[29.27735,40.90452],[29.2904,40.91013],[29.29098,40.91034],[29.29162,40.91049],[29.29228,40.91054],[29.29302,40.91046],[29.29847,40.90937],[29.29901,40.90919],[29.29967,40.90886],[29.30019,40.90836],[29.30198,40.90526],[29.30247,40.90471],[29.30299,40.90434],[29.30369,40.90397],[29.30414,40.90384],[29.30485,40.90377],[29.30631,40.90379],[29.30704,40.9039],[29.3076,40.9041],[29.3082,40.9044],[29.30911,40.90495]],[[29.30911,40.90495],[29.31056,40.90588]],[[29.31056,40.90588],[29.31148,40.90644]]]}},{"type":"Feature","properties":{"line":"M5","osm_relations":[11344904]},"geometry":{"type":"MultiLineString","coordinates":[[[29.01278,41.02527],[29.01695,41.02598],[29.01722,41.02607],[29.01789,41.02643],[29.01947,41.02751],[29.02038,41.02789],[29.02092,41.02801],[29.02169,41.02806],[29.02364,41.02801]],[[29.02364,41.02801],[29.02568,41.02795],[29.02772,41.028],[29.03147,41.02818],[29.03212,41.0281],[29.03277,41.02788],[29.03354,41.02744],[29.03392,41.02713],[29.03418,41.02677],[29.03436,41.02624],[29.03464,41.02419],[29.03482,41.02358],[29.03535,41.02281],[29.037,41.02103],[29.03762,41.02043],[29.03822,41.01997],[29.03903,41.01961],[29.03997,41.01934],[29.04092,41.01925],[29.04173,41.01929],[29.04238,41.01938],[29.04321,41.01966],[29.04606,41.02115],[29.04688,41.02144],[29.05185,41.02251],[29.05669,41.02367],[29.05751,41.0238],[29.05806,41.02381],[29.05864,41.02375],[29.05934,41.02359],[29.06018,41.02326],[29.06428,41.02051],[29.06828,41.01669],[29.06933,41.01594],[29.07002,41.01559],[29.07076,41.01537],[29.07225,41.01516],[29.073,41.01518],[29.07449,41.0155],[29.07811,41.01677],[29.07902,41.01726],[29.0795,41.01774],[29.08001,41.01859],[29.08008,41.01904],[29.07991,41.02101],[29.08013,41.02199],[29.08051,41.02271],[29.08078,41.02307],[29.08107,41.02336],[29.08145,41.02362],[29.08258,41.02407],[29.09065,41.0254],[29.09356,41.02611],[29.09398,41.02619],[29.09442,41.0262],[29.0965,41.02593],[29.11023,41.02383],[29.11176,41.02345],[29.11481,41.02257],[29.11907,41.02125],[29.12131,41.02067],[29.12204,41.02061],[29.12261,41.02063],[29.12574,41.02109],[29.1264,41.02111],[29.12726,41.02103],[29.12779,41.02092],[29.1283,41.02076],[29.12909,41.02043],[29.13048,41.01969],[29.13452,41.01742],[29.1361,41.01685],[29.13712,41.01666],[29.15273,41.01585],[29.16191,41.01524],[29.1652,41.01514],[29.16587,41.01519],[29.17554,41.01675],[29.17604,41.01675],[29.1768,41.01671],[29.17771,41.01654],[29.18059,41.01555],[29.18189,41.01526],[29.19125,41.01428],[29.19198,41.01415]],[[29.19198,41.01415],[29.19299,41.01387],[29.19337,41.0137],[29.19385,41.01336],[29.1941,41.01315],[29.19582,41.01123],[29.19628,41.01082],[29.19676,41.0105],[29.1971,41.0103],[29.19877,41.00954],[29.2006,41.00879],[29.20103,41.00868],[29.20155,41.0086],[29.20212,41.00858],[29.20259,41.00863],[29.20405,41.00896],[29.20798,41.01042]],[[29.20798,41.01042],[29.209,41.01062],[29.2101,41.01057],[29.21073,41.01045],[29.21403,41.00946],[29.21478,41.00909],[29.21525,41.00873],[29.21559,41.00838],[29.21592,41.0079],[29.21613,41.0074],[29.21621,41.00686],[29.216,41.00496]],[[29.216,41.00496],[29.21597,41.00439],[29.21605,41.00386],[29.21834,40.99916],[29.21905,40.99829],[29.2193,40.99806],[29.21992,40.99768],[29.22664,40.99478],[29.22714,40.9945],[29.22756,40.99418],[29.22807,40.99362],[29.22866,40.99255],[29.22996,40.98982],[29.23037,40.98929],[29.23184,40.98784],[29.23208,40.98756],[29.23225,40.98726],[29.23241,40.98658],[29.23242,40.9861],[29.23235,40.98568],[29.23223,40.98535],[29.23129,40.98381]],[[29.23129,40.98381],[29.22947,40.98101],[29.22929,40.98066],[29.22923,40.9802],[29.22932,40.97922],[29.22948,40.97884],[29.22984,40.9783],[29.23143,40.97673]],[[29.23143,40.97673],[29.23282,40.97521],[29.23555,40.97085],[29.23601,40.97044],[29.23638,40.97019],[29.23697,40.96991],[29.23919,40.96908],[29.2408,40.96854],[29.24307,40.96787],[29.24471,40.96754],[29.24604,40.96735],[29.24745,40.96724],[29.24949,40.96728],[29.25041,40.96739],[29.25137,40.96755],[29.26156,40.9704],[29.26217,40.97051],[29.26298,40.97058],[29.26375,40.97055],[29.26458,40.97047],[29.26579,40.97017],[29.26687,40.96975],[29.26733,40.96951],[29.26898,40.9686],[29.2701,40.96789],[29.27138,40.96686],[29.27248,40.9659]]]}},{"type":"Feature","properties":{"line":"M6","osm_relations":[7719781]},"geometry":{"type":"MultiLineString","coordinates":[[[29.01394,41.07563],[29.01501,41.07597],[29.01561,41.07621]],[[29.01561,41.07621],[29.01708,41.07651],[29.02276,41.07725]],[[29.02276,41.07725],[29.02542,41.07745]],[[29.02542,41.07745],[29.02801,41.07766],[29.02853,41.07776],[29.03659,41.0817]],[[29.03659,41.0817],[29.03722,41.08211],[29.038,41.08272],[29.03845,41.08317]],[[29.03845,41.08317],[29.0392,41.08375],[29.04,41.08428],[29.04107,41.08465],[29.04382,41.08511]],[[29.04382,41.08511],[29.04635,41.08538]]]}},{"type":"Feature","properties":{"line":"M7","osm_relations":[11799410,15085834]},"geometry":{"type":"MultiLineString","coordinates":[[[28.82943,41.05524],[28.83332,41.05447]],[[28.83332,41.05447],[28.83544,41.05414],[28.83629,41.05406],[28.83756,41.05415],[28.83832,41.05429],[28.84312,41.05574],[28.84423,41.05603],[28.84569,41.05631],[28.84914,41.05685],[28.85193,41.05744],[28.85313,41.05784],[28.85361,41.0581],[28.85389,41.05839],[28.85406,41.05869],[28.85648,41.0647],[28.85706,41.06559],[28.85774,41.06616],[28.85832,41.06648],[28.86312,41.06854],[28.86398,41.06899],[28.86533,41.06996],[28.87013,41.07384],[28.87076,41.07446],[28.87104,41.07481],[28.87333,41.07861],[28.87402,41.07955],[28.87466,41.08041],[28.87611,41.082]],[[28.87611,41.082],[28.8783,41.08424],[28.87879,41.08468],[28.87929,41.08498],[28.88008,41.08532],[28.8814,41.08566],[28.88226,41.08578],[28.88346,41.08582],[28.88587,41.08578],[28.88706,41.08561],[28.88786,41.08542],[28.89645,41.08257],[28.89694,41.08247],[28.89755,41.08244],[28.898,41.08246],[28.89866,41.08257],[28.89978,41.08294],[28.90069,41.08346],[28.9027,41.08487],[28.90341,41.08524],[28.90389,41.08542],[28.90493,41.08563],[28.90606,41.08567],[28.90664,41.08561],[28.9109,41.08481],[28.9115,41.08462],[28.91239,41.08424],[28.91384,41.08332],[28.91438,41.08305],[28.915,41.08283],[28.91577,41.08264],[28.92044,41.08188],[28.92193,41.08156],[28.92231,41.08143],[28.92266,41.08124],[28.92463,41.07992],[28.92551,41.07958],[28.926,41.07949],[28.93034,41.07937],[28.93123,41.07941],[28.93622,41.07995],[28.93841,41.08011],[28.93934,41.08012],[28.94026,41.08008],[28.94699,41.07934]],[[28.94699,41.07934],[28.9522,41.07895]],[[28.9522,41.07895],[28.95267,41.07892]],[[28.95267,41.07892],[28.95601,41.07864],[28.95902,41.07855],[28.96035,41.07861],[28.96149,41.07886],[28.9655,41.08044],[28.96664,41.08082],[28.96719,41.08095],[28.96825,41.08102],[28.96914,41.08092],[28.96959,41.08082]],[[28.96959,41.08082],[28.96986,41.08074]],[[28.96986,41.08074],[28.9747,41.07908],[28.97539,41.07876],[28.97565,41.07858]],[[28.97565,41.07858],[28.97636,41.07797],[28.97683,41.07729]],[[28.97683,41.07729],[28.97703,41.07677],[28.97793,41.07363],[28.97848,41.07249],[28.97879,41.07195],[28.97946,41.07124],[28.98099,41.06993],[28.98196,41.06914],[28.98253,41.06874],[28.98333,41.06829],[28.98421,41.0679],[28.98523,41.0676],[28.98826,41.06699],[28.98935,41.06667]],[[28.98935,41.06667],[28.99303,41.06552],[28.99429,41.0652],[28.99542,41.06497]],[[28.99542,41.06497],[28.99988,41.06416],[29.00284,41.06382],[29.00364,41.0636],[29.00448,41.06327],[29.00626,41.06246],[29.00909,41.0611],[29.00954,41.06083],[29.00993,41.06051],[29.01019,41.06019],[29.01032,41.05985],[29.01036,41.05919],[29.00945,41.054]]]}},{"type":"Feature","properties":{"line":"M8","osm_relations":[14900216]},"geometry":{"type":"MultiLineString","coordinates":[[[29.09687,40.95177],[29.09514,40.9531],[29.09457,40.95382],[29.09441,40.95425],[29.09438,40.95466],[29.09442,40.95535],[29.09522,40.95816],[29.09525,40.95842],[29.09527,40.95889],[29.09523,40.95914],[29.09501,40.9596],[29.0947,40.95998],[29.09314,40.96142],[29.08955,40.96371],[29.08882,40.9644],[29.08767,40.9659],[29.08676,40.96729],[29.08641,40.96792],[29.08626,40.9683],[29.08616,40.96894],[29.08622,40.96946],[29.08635,40.96985],[29.08649,40.97012],[29.08689,40.97062],[29.08845,40.97252],[29.08917,40.97331],[29.09024,40.97432],[29.0908,40.9747],[29.0915,40.97507],[29.0925,40.97546],[29.09928,40.97718]],[[29.09928,40.97718],[29.10314,40.97819],[29.10524,40.97854],[29.10738,40.97876],[29.10919,40.9789],[29.11244,40.97868],[29.11881,40.97851],[29.12267,40.9783],[29.12352,40.97832],[29.12419,40.97839],[29.12676,40.97878],[29.1313,40.97978],[29.13257,40.98028],[29.13316,40.98064],[29.13387,40.98118],[29.13865,40.98538],[29.13937,40.98596],[29.13965,40.98612],[29.1409,40.9867],[29.14621,40.98885],[29.15073,40.99093],[29.15348,40.99204],[29.15551,40.99305],[29.15593,40.99341],[29.15604,40.99357],[29.15611,40.99376],[29.15616,40.99423],[29.15611,40.99457],[29.15535,40.99667],[29.15524,40.99712],[29.15529,40.99777],[29.15567,40.99865],[29.15728,41.00147],[29.15784,41.00236],[29.15931,41.00405],[29.16119,41.00595],[29.16247,41.00755],[29.16431,41.01009],[29.1646,41.01058],[29.16475,41.01102],[29.16477,41.01139],[29.16468,41.012],[29.16436,41.01321],[29.16382,41.01461]],[[29.16382,41.01461],[29.16332,41.0158]],[[29.16332,41.0158],[29.16214,41.01836],[29.16026,41.02136],[29.15984,41.02219],[29.15912,41.0238],[29.15864,41.0246],[29.15821,41.02503],[29.15699,41.02591],[29.15579,41.02691],[29.15505,41.02784],[29.15268,41.03125]]]}},{"type":"Feature","properties":{"line":"M9","osm_relations":[4289800]},"geometry":{"type":"MultiLineString","coordinates":[[[28.85629,40.98001],[28.85136,40.98001],[28.84796,40.98022],[28.84665,40.98041],[28.84541,40.98073],[28.84474,40.98094],[28.84365,40.98147],[28.84323,40.98173],[28.84228,40.98251],[28.83907,40.98661],[28.83879,40.98713],[28.8386,40.98763],[28.83829,40.98865],[28.83789,40.99057],[28.83771,40.991],[28.83716,40.99172],[28.83649,40.99222],[28.83596,40.9925],[28.83535,40.99271],[28.83471,40.99286],[28.83351,40.99299],[28.83277,40.99301],[28.82552,40.99269],[28.82508,40.99272],[28.82462,40.99282],[28.82417,40.993],[28.82381,40.9932],[28.82356,40.99343],[28.82333,40.99374],[28.82319,40.99399],[28.82312,40.9945],[28.82308,40.99783],[28.82263,41.00026],[28.82217,41.0017],[28.8219,41.00234],[28.82149,41.00292],[28.81983,41.00445],[28.81933,41.0052],[28.81861,41.00667],[28.81832,41.00738],[28.81819,41.00787],[28.81814,41.00832],[28.81816,41.01589],[28.81798,41.01762],[28.81639,41.02755],[28.81508,41.03251],[28.81359,41.04014],[28.81341,41.04079],[28.81324,41.04106],[28.81274,41.04156],[28.80709,41.04492],[28.80487,41.04607],[28.80234,41.04729],[28.80199,41.0475],[28.80119,41.04812],[28.79917,41.05058],[28.79907,41.05091],[28.79896,41.05219],[28.79894,41.05314],[28.79907,41.05375],[28.79952,41.05509],[28.79958,41.05547],[28.79946,41.05981],[28.79964,41.06059],[28.79987,41.0611],[28.80024,41.06165],[28.80064,41.06208],[28.80136,41.06256],[28.8054,41.06454],[28.80624,41.06515],[28.8067,41.06558],[28.807,41.06596],[28.80711,41.06622],[28.80715,41.06642],[28.80713,41.06695],[28.80691,41.06752],[28.80625,41.06864],[28.80585,41.06911],[28.80003,41.07438],[28.79975,41.0746],[28.79941,41.07477],[28.79842,41.07491],[28.79785,41.07491],[28.79217,41.07441],[28.79034,41.07441],[28.78746,41.07459],[28.78537,41.07478],[28.78095,41.07526],[28.77979,41.07546],[28.77899,41.07565],[28.77847,41.07587]],[[28.77847,41.07587],[28.77283,41.07867]],[[28.77283,41.07867],[28.77206,41.07904],[28.77169,41.07916],[28.76992,41.07948]],[[28.76884,41.07947],[28.76992,41.07948]],[[28.76708,41.07964],[28.76884,41.07947]]]}},{"type":"Feature","properties":{"line":"M11","osm_relations":[15083964]},"geometry":{"type":"MultiLineString","coordinates":[[[29.01075,41.06701],[29.00976,41.06757]],[[29.00976,41.06757],[29.00839,41.0687]],[[29.00839,41.0687],[29.00795,41.06891]],[[29.00795,41.06891],[29.0063,41.06998],[29.00543,41.07066]],[[29.00543,41.07066],[29.00412,41.07156],[29.00315,41.07201],[28.99703,41.07395],[28.99548,41.07421],[28.9898,41.07467],[28.98895,41.07479],[28.9881,41.07499],[28.98686,41.07543],[28.97756,41.07969],[28.97662,41.08019]],[[28.97662,41.08019],[28.97491,41.0811],[28.97369,41.08166],[28.9725,41.08232],[28.95768,41.09109],[28.95711,41.0916],[28.95686,41.09193],[28.95633,41.09294],[28.95499,41.09742],[28.95422,41.09924],[28.954,41.09989],[28.95333,41.10323],[28.95297,41.10442],[28.95236,41.10588],[28.94916,41.11184],[28.94887,41.11249],[28.94868,41.11311],[28.94718,41.12034],[28.94533,41.12858],[28.94506,41.12931],[28.94482,41.1296],[28.94405,41.13025],[28.94342,41.13059],[28.9285,41.13749],[28.9275,41.13808],[28.92698,41.13849],[28.92653,41.13899],[28.92618,41.13953],[28.92452,41.14513],[28.92421,41.14585],[28.92364,41.14676],[28.92298,41.14745],[28.92233,41.14799],[28.92107,41.1489],[28.91288,41.15317],[28.91238,41.15347],[28.91199,41.15381],[28.91171,41.1542],[28.91156,41.15465],[28.91059,41.15813],[28.90978,41.16185],[28.90956,41.16246],[28.90933,41.16287],[28.90868,41.16373],[28.90838,41.16401],[28.90799,41.16429],[28.9074,41.16461],[28.90653,41.16495],[28.89572,41.16849],[28.89399,41.16918],[28.89309,41.16959],[28.89226,41.17001],[28.89129,41.1706],[28.88765,41.17349],[28.88383,41.17697],[28.87481,41.1857],[28.87373,41.18694],[28.87224,41.189],[28.87181,41.18967],[28.87152,41.19032],[28.86995,41.19517],[28.86947,41.19618],[28.86911,41.19672],[28.86854,41.19733],[28.8671,41.19847],[28.86631,41.19899],[28.85469,41.20505],[28.85094,41.20682],[28.84667,41.20863],[28.84557,41.2092],[28.84413,41.21022],[28.84335,41.21092],[28.84269,41.21173],[28.83752,41.22181],[28.83698,41.22268],[28.83644,41.2234],[28.82863,41.23171],[28.82826,41.232],[28.82723,41.23256],[28.82157,41.23473],[28.81963,41.23562],[28.81759,41.23669],[28.8164,41.23747],[28.81115,41.24126],[28.80687,41.24478]],[[28.80687,41.24478],[28.80611,41.24531],[28.8054,41.2457],[28.80484,41.24595],[28.80429,41.24612],[28.79484,41.24813],[28.79265,41.24883],[28.79161,41.24927],[28.78959,41.25031],[28.78821,41.25108],[28.78759,41.25152],[28.78498,41.25353],[28.78428,41.25395],[28.78344,41.25439],[28.77924,41.25596],[28.77837,41.25621],[28.77713,41.25641],[28.77603,41.25652],[28.77204,41.25656],[28.75485,41.25635],[28.74791,41.2561],[28.74387,41.25604]],[[28.74387,41.25604],[28.72449,41.25572]],[[28.72449,41.25572],[28.72211,41.25565]],[[28.72211,41.25565],[28.71273,41.25553]],[[28.71273,41.25553],[28.71106,41.25551],[28.70992,41.25544],[28.70894,41.25531],[28.70799,41.25508],[28.7073,41.2548],[28.70579,41.25396],[28.70537,41.25368],[28.70446,41.2529],[28.70409,41.25254],[28.70314,41.25143],[28.70257,41.25068],[28.70235,41.2503],[28.70197,41.2493],[28.70183,41.24877],[28.70161,41.24741],[28.70161,41.24634],[28.7017,41.2456],[28.70216,41.24412],[28.70367,41.24015],[28.70382,41.23957],[28.70438,41.23676],[28.70447,41.23565],[28.70445,41.23476],[28.70281,41.22686],[28.70274,41.22566],[28.70347,41.22049],[28.70362,41.2198],[28.70381,41.21935],[28.7042,41.21867],[28.70452,41.21826],[28.70494,41.21792],[28.70592,41.2173],[28.71037,41.21508],[28.71127,41.21461],[28.71204,41.21413],[28.71354,41.21293],[28.71388,41.21257],[28.71432,41.21193],[28.71477,41.21104],[28.71773,41.19798],[28.71792,41.19756],[28.71823,41.19711],[28.71868,41.19664],[28.71914,41.19629],[28.72538,41.19308],[28.73707,41.18724],[28.74537,41.18171],[28.74597,41.18126],[28.74639,41.18085],[28.74674,41.18039],[28.74708,41.17988],[28.7475,41.17903]],[[28.7475,41.17903],[28.74886,41.17626],[28.74918,41.17582],[28.75045,41.17459],[28.75227,41.17302],[28.75361,41.17211],[28.75503,41.17123],[28.77199,41.16296],[28.77411,41.16215],[28.77559,41.16169],[28.78171,41.16016],[28.7833,41.15958],[28.78514,41.15871],[28.79789,41.1511],[28.79841,41.15072],[28.79924,41.14988],[28.79955,41.14943],[28.79995,41.14872],[28.80018,41.14813],[28.80036,41.14729],[28.80038,41.14651],[28.8002,41.1461],[28.79986,41.14564],[28.79314,41.13915],[28.79178,41.13794],[28.78783,41.13392],[28.7873,41.1332],[28.78696,41.13259],[28.78523,41.12836],[28.78472,41.12752],[28.78441,41.12717],[28.78396,41.12681],[28.78298,41.12634],[28.78184,41.12604],[28.76783,41.1232],[28.76738,41.12307],[28.7669,41.12283],[28.76648,41.12254],[28.7661,41.12212],[28.76582,41.12156],[28.76574,41.12119],[28.76542,41.11554],[28.76589,41.11225],[28.76613,41.11074],[28.76646,41.10911],[28.76664,41.10779],[28.76674,41.10676],[28.76672,41.10503],[28.76428,41.09495],[28.76407,41.09387],[28.76411,41.09243],[28.76444,41.09103],[28.76801,41.08137],[28.76922,41.07873],[28.76996,41.077],[28.77033,41.07589],[28.77072,41.07443],[28.77104,41.07201],[28.77104,41.07082],[28.77006,41.06608],[28.77001,41.06546],[28.77008,41.06479],[28.77043,41.0639],[28.77077,41.06336],[28.77284,41.06074],[28.77334,41.06],[28.77387,41.05905],[28.7743,41.05813],[28.77446,41.05745],[28.7746,41.0548],[28.77454,41.05207],[28.77353,41.04128],[28.7734,41.04069],[28.77294,41.03956],[28.77247,41.03864],[28.77013,41.03533],[28.76967,41.0343],[28.76948,41.03345],[28.76831,41.02427],[28.76796,41.02192],[28.76792,41.02076],[28.76796,41.0199]]]}},{"type":"Feature","properties":{"line":"Marmaray","osm_relations":[9987139]},"geometry":{"type":"MultiLineString","coordinates":[[[28.76668,41.01743],[28.76669,41.01848]],[[28.76668,41.01743],[28.76669,41.01464],[28.76682,41.01408],[28.76719,41.01332],[28.76771,41.01275],[28.76858,41.01216],[28.76941,41.01183],[28.77028,41.01164]],[[28.77028,41.01164],[28.77169,41.01136],[28.77208,41.01123],[28.77266,41.01097],[28.7735,41.01041],[28.77398,41.00992],[28.77439,41.00929],[28.77453,41.00897],[28.77461,41.00866],[28.77462,41.00819],[28.77444,41.00749],[28.77408,41.00672],[28.77332,41.00536],[28.77276,41.00463],[28.7723,41.00426],[28.77033,41.00297],[28.76978,41.00252],[28.76926,41.00204],[28.76841,41.00095],[28.76794,41.00004],[28.76761,40.99889],[28.76753,40.99831],[28.76758,40.99712],[28.76773,40.99649],[28.76802,40.9956],[28.76863,40.99454],[28.76902,40.99402],[28.76952,40.99347],[28.77129,40.99191],[28.77154,40.99167],[28.77197,40.99112],[28.77224,40.99065],[28.77249,40.99002],[28.77283,40.98852],[28.77341,40.98661],[28.77403,40.98578],[28.77548,40.98425],[28.77577,40.98386],[28.77604,40.98336],[28.77616,40.983],[28.77622,40.98254],[28.77619,40.98199],[28.77595,40.98127],[28.7755,40.98033],[28.77533,40.97983],[28.77526,40.97933],[28.7753,40.97858],[28.77554,40.97793],[28.7759,40.97735],[28.77633,40.9769],[28.77689,40.97648],[28.77777,40.97603],[28.78344,40.97421],[28.78922,40.97229]],[[28.78922,40.97229],[28.78941,40.97222]],[[28.78941,40.97222],[28.7931,40.97095],[28.79374,40.97067],[28.79417,40.97041],[28.79457,40.97013],[28.79536,40.96943],[28.7978,40.96683],[28.79864,40.966],[28.79943,40.96547],[28.8004,40.965],[28.80132,40.96472],[28.80239,40.96455],[28.8036,40.96445]],[[28.8036,40.96445],[28.80389,40.96443]],[[28.80389,40.96443],[28.81735,40.96326]],[[28.81735,40.96326],[28.81765,40.96323]],[[28.81765,40.96323],[28.81875,40.96312]],[[28.81875,40.96312],[28.81901,40.9631]],[[28.81901,40.9631],[28.82486,40.96258],[28.82835,40.96236],[28.82917,40.96236],[28.83055,40.96248],[28.83145,40.96263],[28.83304,40.96305],[28.83458,40.96362],[28.83561,40.96413],[28.83659,40.96476],[28.8379,40.96582],[28.83836,40.96631],[28.83908,40.96726],[28.83936,40.96773],[28.84016,40.96955]],[[28.84016,40.96955],[28.84032,40.9699]],[[28.84032,40.9699],[28.84241,40.97434],[28.84302,40.97532],[28.8438,40.97629]],[[28.8438,40.97629],[28.844,40.97651]],[[28.844,40.97651],[28.84532,40.97763],[28.84626,40.97825],[28.84783,40.97905],[28.84899,40.97949],[28.84979,40.97973],[28.85083,40.98],[28.85248,40.98022],[28.85396,40.98026],[28.85623,40.98016]],[[28.85623,40.98016],[28.8583,40.98011]],[[28.8583,40.98011],[28.8586,40.9801]],[[28.8586,40.9801],[28.86309,40.97995]],[[28.86309,40.97995],[28.86359,40.97993]],[[28.86359,40.97993],[28.86817,40.97978],[28.86956,40.97987],[28.87082,40.98004],[28.87877,40.98137],[28.88105,40.98167],[28.88433,40.98228]],[[28.88433,40.98228],[28.88487,40.98236]],[[28.88487,40.98236],[28.88967,40.98245]],[[28.88967,40.98245],[28.89019,40.98246]],[[28.89019,40.98246],[28.89301,40.98241]],[[28.89301,40.98241],[28.89338,40.98241]],[[28.89338,40.98241],[28.89516,40.98244],[28.89842,40.98238],[28.90045,40.98272],[28.90107,40.98291],[28.9021,40.98336]],[[28.9021,40.98336],[28.90235,40.98348]],[[28.90235,40.98348],[28.90347,40.98421],[28.90664,40.9868]],[[28.90664,40.9868],[28.90754,40.98754]],[[28.90754,40.98754],[28.90776,40.98774]],[[28.90776,40.98774],[28.90841,40.98847]],[[28.90841,40.98847],[28.90846,40.98853]],[[28.90846,40.98853],[28.90858,40.98867]],[[28.90858,40.98867],[28.90884,40.98898]],[[28.90884,40.98898],[28.909,40.98918]],[[28.909,40.98918],[28.90928,40.98955]],[[28.90928,40.98955],[28.90948,40.98979]],[[28.90948,40.98979],[28.91,40.99041]],[[28.91,40.99041],[28.9109,40.99141],[28.91152,40.99192]],[[28.91152,40.99192],[28.9123,40.99239],[28.91272,40.99258],[28.91339,40.9928],[28.91409,40.99291]],[[28.91409,40.99291],[28.91438,40.99293]],[[28.91438,40.99293],[28.91533,40.99288],[28.9169,40.99261]],[[28.9169,40.99261],[28.91944,40.99221]],[[28.91944,40.99221],[28.91975,40.99214]],[[28.91975,40.99214],[28.92091,40.99184]],[[28.92091,40.99184],[28.92179,40.99173],[28.92239,40.99175],[28.92288,40.99181],[28.92368,40.99205]],[[28.92368,40.99205],[28.92406,40.99221],[28.9256,40.99307],[28.93069,40.99548],[28.93111,40.99577],[28.9317,40.99628],[28.93192,40.99654],[28.93312,40.99895],[28.93361,40.99967],[28.93417,41.00023],[28.9347,41.00062],[28.93588,41.00123],[28.93708,41.00177],[28.93898,41.00244],[28.94052,41.00281],[28.94573,41.00392],[28.95787,41.00633],[28.95885,41.00657],[28.96004,41.00701],[28.96082,41.00747],[28.96602,41.0112],[28.96639,41.01141],[28.96748,41.01186],[28.9698,41.01243],[28.97736,41.01341]],[[28.97736,41.01341],[28.9791,41.01365],[28.98022,41.01394],[28.9813,41.01433],[28.98244,41.01485],[28.98552,41.01681],[28.98702,41.01746],[29.00696,41.02417],[29.01104,41.02521],[29.01595,41.02605],[29.01856,41.0261],[29.02149,41.02598],[29.02279,41.02582],[29.02335,41.0257],[29.02472,41.02522],[29.02522,41.02496],[29.02575,41.02459],[29.02655,41.02393],[29.02691,41.02356],[29.02723,41.02317],[29.02761,41.02257],[29.02779,41.02211],[29.02804,41.02109],[29.02826,41.01972],[29.02859,41.01655],[29.02906,41.01313],[29.03047,41.00743],[29.03114,41.00509],[29.03127,41.00437],[29.03127,41.00392],[29.03091,41.0027]],[[29.03091,41.0027],[29.03033,41.00103]],[[29.03033,41.00103],[29.02979,40.99937],[29.02972,40.99864]],[[29.02972,40.99864],[29.02974,40.99847]],[[29.02974,40.99847],[29.02984,40.99802],[29.03017,40.99736]],[[29.03017,40.99736],[29.03114,40.99606]],[[29.03114,40.99606],[29.03144,40.99564]],[[29.03144,40.99564],[29.03225,40.99454],[29.0328,40.99407]],[[29.0328,40.99407],[29.03365,40.99359]],[[29.03365,40.99359],[29.03488,40.99294]],[[29.03488,40.99294],[29.03608,40.99231],[29.03693,40.9917],[29.03757,40.99108],[29.03883,40.98959]],[[29.03883,40.98959],[29.03902,40.98936]],[[29.03902,40.98936],[29.04103,40.98689]],[[29.04103,40.98689],[29.04114,40.98677]],[[29.04114,40.98677],[29.04163,40.98612],[29.04188,40.98568],[29.04251,40.98394]],[[29.04251,40.98394],[29.04255,40.98382]],[[29.04255,40.98382],[29.04327,40.9819],[29.04362,40.9814],[29.04416,40.98094],[29.04476,40.9806],[29.04902,40.97864],[29.05022,40.97813],[29.05089,40.97791],[29.05182,40.97775],[29.05283,40.9777],[29.05344,40.97772],[29.06413,40.97939],[29.06469,40.97944],[29.06528,40.97943],[29.06635,40.97922],[29.06735,40.97882],[29.06804,40.97841],[29.07095,40.97642]],[[29.07095,40.97642],[29.07114,40.97629]],[[29.07114,40.97629],[29.0751,40.97356],[29.07544,40.97326],[29.07578,40.97284],[29.07744,40.96906],[29.07773,40.96856],[29.07868,40.96721],[29.07892,40.96674],[29.07904,40.96626],[29.07905,40.9658],[29.07874,40.96456]],[[29.07874,40.96456],[29.07864,40.96418]],[[29.07864,40.96418],[29.07857,40.96359],[29.07867,40.96303],[29.0789,40.96252],[29.07928,40.96203]],[[29.07928,40.96203],[29.07945,40.96187]],[[29.07945,40.96187],[29.08006,40.96144],[29.08076,40.96114],[29.08282,40.96071]],[[29.08282,40.96071],[29.08441,40.96041],[29.08602,40.96016]],[[29.08602,40.96016],[29.08823,40.95978],[29.08882,40.95957],[29.08941,40.95924],[29.08993,40.9588],[29.09031,40.95831],[29.09053,40.95778],[29.09103,40.95613],[29.09139,40.95557],[29.09186,40.95512],[29.09235,40.95478],[29.09301,40.95447],[29.09677,40.95324],[29.09717,40.95302],[29.09766,40.95266],[29.09826,40.95199]],[[29.09826,40.95199],[29.09839,40.95183]],[[29.09839,40.95183],[29.10118,40.94838],[29.10278,40.9469],[29.10329,40.94662],[29.10444,40.94625],[29.10508,40.94618],[29.109,40.94625],[29.10963,40.94616],[29.11022,40.94596],[29.11076,40.9457],[29.11122,40.94536],[29.11162,40.94498],[29.11191,40.94454],[29.11206,40.94419],[29.11214,40.94383],[29.11217,40.94336],[29.11199,40.94189],[29.11197,40.9414],[29.112,40.94114],[29.11214,40.94066],[29.11237,40.9402],[29.11267,40.93976],[29.11417,40.93781],[29.11835,40.93274],[29.11916,40.93186],[29.12263,40.9284],[29.12419,40.92674],[29.12723,40.9238]],[[29.12723,40.9238],[29.12734,40.9237]],[[29.12734,40.9237],[29.12795,40.9232],[29.12892,40.92263],[29.13325,40.92077]],[[29.13325,40.92077],[29.14877,40.91422]],[[29.14877,40.91422],[29.14895,40.91415]],[[29.14895,40.91415],[29.15345,40.91223],[29.15409,40.91191],[29.15454,40.91161],[29.15521,40.91099],[29.15688,40.90881],[29.15748,40.90822],[29.16222,40.90506],[29.1629,40.90457],[29.16575,40.902],[29.16741,40.90035],[29.16912,40.89878],[29.17096,40.8973],[29.17268,40.89621],[29.17364,40.8955],[29.17473,40.89444],[29.17571,40.89332],[29.1774,40.8903],[29.17814,40.88912],[29.1784,40.88877],[29.17899,40.88825],[29.17972,40.88785],[29.18026,40.88766],[29.18111,40.88752],[29.182,40.88751],[29.18286,40.88765],[29.18342,40.88782],[29.18393,40.88805],[29.18503,40.88873]],[[29.18503,40.88873],[29.18611,40.88934]],[[29.18611,40.88934],[29.18665,40.88955],[29.18718,40.88968],[29.18778,40.88974],[29.18853,40.88971]],[[29.18853,40.88971],[29.18923,40.88956],[29.18959,40.88944],[29.19054,40.88893],[29.1915,40.88835]],[[29.1915,40.88835],[29.1924,40.88781],[29.19311,40.88749],[29.19367,40.88734],[29.19426,40.88726],[29.1963,40.8871],[29.19686,40.887],[29.19733,40.88686],[29.19903,40.88607],[29.19974,40.88581],[29.20258,40.88504],[29.20339,40.88499],[29.20431,40.88507],[29.20642,40.88561],[29.20742,40.88564],[29.20814,40.88555],[29.20896,40.88528],[29.2125,40.88342],[29.2152,40.88239],[29.21618,40.88209],[29.22626,40.87997],[29.22746,40.87985],[29.22797,40.87988],[29.22994,40.88013],[29.23173,40.88027]],[[29.23173,40.88027],[29.23389,40.88042],[29.2364,40.88046],[29.23743,40.88036],[29.23825,40.88015],[29.23923,40.8797],[29.24337,40.87674],[29.24431,40.87614],[29.2451,40.87574],[29.24594,40.87542],[29.25195,40.8735],[29.25271,40.87321],[29.25397,40.87256],[29.2559,40.87133],[29.25967,40.86908]],[[29.25967,40.86908],[29.26004,40.86886]],[[29.26004,40.86886],[29.26261,40.86727],[29.26419,40.8664],[29.26509,40.86604],[29.26976,40.86437],[29.27039,40.86404],[29.27126,40.86343]],[[29.27126,40.86343],[29.27149,40.86325]],[[29.27149,40.86325],[29.27215,40.86269],[29.27237,40.8624]],[[29.27237,40.8624],[29.27256,40.86216]],[[29.27256,40.86216],[29.27321,40.8611],[29.27411,40.8598],[29.27442,40.85945],[29.27578,40.85834],[29.27645,40.85791],[29.27719,40.85755],[29.27841,40.85715],[29.27969,40.85687],[29.28035,40.85678],[29.28206,40.85674],[29.28592,40.8569],[29.28708,40.85672],[29.2885,40.85629]],[[29.2885,40.85629],[29.28874,40.85619]],[[29.28874,40.85619],[29.28924,40.85596],[29.29036,40.85529],[29.291,40.85476],[29.29152,40.85424],[29.29587,40.84895],[29.29659,40.84822],[29.29735,40.84762],[29.29851,40.84682],[29.30167,40.84435],[29.30267,40.84351],[29.30354,40.8429]],[[29.30354,40.8429],[29.30387,40.84269]],[[29.30387,40.84269],[29.30704,40.84092],[29.30791,40.84034],[29.3155,40.83456],[29.32079,40.83102],[29.32217,40.82999],[29.32449,40.82836],[29.32646,40.82678],[29.32729,40.82589],[29.32786,40.82493],[29.32803,40.82452],[29.32842,40.823],[29.32867,40.82224]],[[29.32867,40.82224],[29.32911,40.82135]],[[29.32911,40.82135],[29.32979,40.82043],[29.33058,40.81967],[29.33883,40.81325],[29.33974,40.81264],[29.34066,40.81217],[29.3414,40.81189],[29.34423,40.811],[29.34536,40.81071],[29.35105,40.81005],[29.3594,40.80846]],[[29.3594,40.80846],[29.3597,40.8084]],[[29.3597,40.8084],[29.3667,40.80701],[29.36781,40.80669],[29.36877,40.80634],[29.3698,40.80588],[29.37126,40.80504],[29.39436,40.78968],[29.39525,40.78911],[29.3961,40.78865],[29.39701,40.78827],[29.39808,40.78791],[29.41074,40.78387]]]}},{"type":"Feature","properties":{"line":"SK","osm_relations":[16400029]},"geometry":{"type":"MultiLineString","coordinates":[[[28.91688,40.99258],[28.91877,40.99231],[28.91941,40.99216]],[[28.91941,40.99216],[28.91973,40.99209]],[[28.91973,40.99209],[28.92133,40.99172],[28.9224,40.9917],[28.92326,40.99185],[28.92373,40.992],[28.92443,40.99231]],[[28.92443,40.99231],[28.92869,40.99433],[28.93013,40.99547]],[[28.93013,40.99547],[28.93022,40.99555]],[[28.93022,40.99555],[28.93088,40.99624],[28.9314,40.99708]],[[28.9314,40.99708],[28.93143,40.99715]],[[28.93143,40.99715],[28.93172,40.99792]],[[28.93172,40.99792],[28.93202,40.99863],[28.93241,40.99924],[28.93303,40.9999],[28.93362,41.0004],[28.93436,41.00084],[28.93491,41.00111],[28.93776,41.00222]],[[28.93776,41.00222],[28.9381,41.00234]],[[28.9381,41.00234],[28.93902,41.00258],[28.9455,41.00352],[28.95008,41.00441]],[[28.95008,41.00441],[28.95032,41.00447]],[[28.95032,41.00447],[28.9519,41.0048],[28.95323,41.00486]],[[28.95323,41.00486],[28.95403,41.00481]],[[28.95403,41.00481],[28.9557,41.0047],[28.95704,41.00452],[28.96039,41.00369]],[[28.96039,41.00369],[28.96055,41.00366]],[[28.96055,41.00366],[28.96131,41.00355],[28.96511,41.00325]],[[28.96511,41.00325],[28.96544,41.00323]],[[28.96544,41.00323],[28.96669,41.00315]],[[28.96669,41.00315],[28.96678,41.00314]],[[28.96678,41.00314],[28.96865,41.00299]],[[28.96865,41.00299],[28.96876,41.00297]],[[28.96876,41.00297],[28.9713,41.00264]],[[28.9713,41.00264],[28.97151,41.00262]],[[28.97151,41.00262],[28.97263,41.00249],[28.9735,41.00246]],[[28.9735,41.00246],[28.9738,41.00246]],[[28.9738,41.00246],[28.97491,41.00254],[28.97608,41.00274],[28.97841,41.00322],[28.97922,41.00347]],[[28.97922,41.00347],[28.97934,41.00352]],[[28.97934,41.00352],[28.98106,41.00442],[28.98222,41.00512]],[[28.98222,41.00512],[28.98233,41.0052]],[[28.98233,41.0052],[28.9835,41.00592]],[[28.9835,41.00592],[28.9836,41.00598]],[[28.9836,41.00598],[28.98481,41.00695],[28.98542,41.00758],[28.98591,41.00819],[28.98614,41.00856],[28.98663,41.00954],[28.98688,41.01035],[28.98701,41.01125],[28.98703,41.01197],[28.98691,41.01429],[28.98684,41.01469],[28.98658,41.01521],[28.98615,41.01561],[28.98553,41.01595],[28.9846,41.01618],[28.98404,41.01618],[28.98357,41.01611],[28.98275,41.01584]],[[28.97844,41.015],[28.98096,41.01533],[28.98169,41.01551],[28.98275,41.01584]]]}},{"type":"Feature","properties":{"line":"HB","osm_relations":[14039181]},"geometry":{"type":"MultiLineString","coordinates":[[[28.76663,41.01844],[28.76664,41.01939]],[[28.76664,41.01939],[28.76665,41.02049],[28.76659,41.02097],[28.76611,41.02229],[28.76556,41.02338]],[[28.76556,41.02338],[28.76534,41.02389],[28.7652,41.02451]],[[28.7652,41.02451],[28.76508,41.02504]],[[28.76508,41.02504],[28.76502,41.02536],[28.76492,41.02793],[28.76426,41.03178],[28.76391,41.03322],[28.76355,41.03409],[28.76318,41.03478],[28.76072,41.03891],[28.7604,41.03932],[28.75988,41.03992],[28.75942,41.04035],[28.75877,41.04086],[28.75803,41.04131],[28.75743,41.0416],[28.75655,41.04194],[28.75179,41.04371],[28.75113,41.04403],[28.75022,41.04458],[28.74943,41.04527],[28.74877,41.04605],[28.74832,41.04671],[28.74807,41.04724],[28.74781,41.04796],[28.74769,41.04871],[28.74769,41.04929],[28.74778,41.05007],[28.74792,41.05063],[28.74869,41.05282],[28.74888,41.05365],[28.7489,41.0545],[28.74876,41.05538]],[[28.74876,41.05538],[28.74866,41.05573],[28.74827,41.05658],[28.74772,41.05741],[28.74731,41.05787],[28.74684,41.05832],[28.74616,41.05884],[28.74552,41.05922]],[[28.74552,41.05922],[28.7451,41.05946]],[[28.7451,41.05946],[28.74396,41.05992],[28.74327,41.06013],[28.74185,41.06039],[28.74063,41.06047],[28.73923,41.06037],[28.73832,41.06022],[28.73763,41.06005],[28.73616,41.05945],[28.73499,41.0588],[28.73449,41.05841],[28.73374,41.05767],[28.73335,41.05719],[28.73304,41.05669],[28.73272,41.05601],[28.73206,41.05384],[28.73178,41.05311],[28.73152,41.05257],[28.7308,41.05156],[28.72984,41.05065],[28.72912,41.05011],[28.72855,41.04976],[28.72774,41.04934],[28.72688,41.049],[28.72577,41.04867],[28.72483,41.04848],[28.72389,41.04835],[28.72294,41.0483],[28.72175,41.04834],[28.72007,41.04858],[28.71891,41.0489],[28.71763,41.04943],[28.70391,41.05713],[28.70269,41.058],[28.70222,41.05842],[28.70132,41.05934]],[[28.70132,41.05934],[28.70073,41.06021],[28.70055,41.06055],[28.69901,41.06384],[28.69838,41.06481],[28.69782,41.06545]],[[28.69782,41.06545],[28.69694,41.06638],[28.6943,41.06869],[28.69388,41.06916],[28.69299,41.07053],[28.69226,41.07196],[28.69166,41.07299],[28.69071,41.07413],[28.68996,41.0749],[28.68842,41.07616],[28.68779,41.07675],[28.68625,41.07848],[28.68549,41.07925],[28.68282,41.08171]],[[28.68282,41.08171],[28.68269,41.08183]],[[28.68269,41.08183],[28.68184,41.08255],[28.68113,41.08307],[28.68032,41.08358]],[[28.67884,41.08444],[28.6799,41.08379],[28.68032,41.08358]]]}},{"type":"Feature","properties":{"line":"T1","osm_relations":[2962729]},"geometry":{"type":"MultiLineString","coordinates":[[[28.97447,41.02187],[28.97493,41.0225],[28.975,41.02267],[28.97508,41.02325],[28.97526,41.02356],[28.97636,41.02446],[28.97831,41.02585],[28.98073,41.02701],[28.98212,41.02749],[28.98665,41.02886],[28.9872,41.02906],[28.98778,41.02939],[28.98827,41.02982],[28.98913,41.03114],[28.98979,41.03189],[28.99011,41.03218],[28.99125,41.03309],[28.99294,41.03475]],[[28.97447,41.02187],[28.97184,41.01822]],[[28.97184,41.01822],[28.9718,41.01808],[28.97182,41.01787],[28.97192,41.01771],[28.97216,41.01758],[28.97422,41.01734],[28.97626,41.01648],[28.97641,41.01635],[28.97643,41.01614],[28.97569,41.01493],[28.97569,41.01479],[28.9759,41.01458],[28.97662,41.01423],[28.97781,41.01298],[28.97846,41.01246],[28.97806,41.01099],[28.97815,41.01084],[28.97864,41.01053],[28.9787,41.01042],[28.9785,41.00853],[28.97838,41.00825],[28.97817,41.008],[28.97794,41.00789],[28.97764,41.00786],[28.97512,41.00815],[28.96894,41.00864],[28.96806,41.00882],[28.96749,41.00888],[28.96703,41.00902],[28.96633,41.00914],[28.96503,41.00932],[28.96353,41.00943],[28.96204,41.00961],[28.95562,41.00959],[28.95469,41.00963],[28.95229,41.00957],[28.94807,41.00981],[28.94744,41.00992],[28.94589,41.01028],[28.94118,41.01154],[28.94003,41.01203],[28.93867,41.01253],[28.93762,41.01318],[28.93633,41.01383],[28.92457,41.01952],[28.92421,41.01964],[28.92343,41.01971],[28.92175,41.0195],[28.92041,41.01944],[28.91985,41.01936]],[[28.91985,41.01936],[28.91902,41.01921]],[[28.91902,41.01921],[28.91728,41.01882],[28.91608,41.01827],[28.91523,41.01803],[28.91484,41.01778],[28.91421,41.01719],[28.91381,41.01697],[28.91125,41.01593],[28.91104,41.01578],[28.91089,41.01553],[28.90978,41.01282],[28.9097,41.01189],[28.90948,41.01059],[28.90943,41.0099],[28.90945,41.00969],[28.90977,41.00919]],[[28.90977,41.00919],[28.90977,41.00888],[28.90908,41.00737],[28.90891,41.00656],[28.90937,41.00529],[28.90968,41.00494],[28.90972,41.00484],[28.90969,41.00467],[28.90953,41.00453],[28.90939,41.00447],[28.90773,41.00428]],[[28.90773,41.00428],[28.90462,41.00398],[28.90216,41.00353],[28.89961,41.00334],[28.89798,41.00288],[28.89655,41.00212],[28.896,41.00197],[28.89197,41.00147],[28.88892,41.00156]],[[28.88892,41.00156],[28.88765,41.00145],[28.88638,41.0012],[28.88579,41.00124],[28.8853,41.00142],[28.88432,41.00197],[28.88368,41.0025],[28.88342,41.00282]],[[28.88342,41.00282],[28.8814,41.00633],[28.88113,41.00808],[28.88086,41.01122],[28.8802,41.01386],[28.8801,41.01406],[28.87975,41.01432],[28.87818,41.0148],[28.87724,41.01544],[28.87687,41.0158],[28.87667,41.01583],[28.8755,41.01552],[28.87519,41.01553],[28.87205,41.01676],[28.87015,41.01803],[28.86979,41.01838],[28.86855,41.01985],[28.86684,41.02121],[28.86545,41.02269],[28.86457,41.02319],[28.86343,41.02401],[28.86321,41.02431],[28.86308,41.02465],[28.86283,41.02502],[28.86199,41.02591],[28.86175,41.02628],[28.86137,41.02722],[28.86127,41.02758],[28.86114,41.02865],[28.86034,41.03056],[28.86069,41.03272]],[[28.86078,41.03336],[28.86069,41.03272]]]}},{"type":"Feature","properties":{"line":"T2","osm_relations":[301617]},"geometry":{"type":"MultiLineString","coordinates":[[[28.98483,41.03653],[28.9849,41.03669],[28.98477,41.03694],[28.98483,41.03714],[28.98497,41.03723],[28.98521,41.03724],[28.9854,41.03714],[28.98547,41.03702],[28.98541,41.03682],[28.98489,41.03659]],[[28.98489,41.03659],[28.9844,41.03623],[28.98324,41.03591],[28.97792,41.03379]],[[28.97792,41.03379],[28.97729,41.03355]],[[28.97729,41.03355],[28.97691,41.03337],[28.97672,41.03318],[28.97615,41.03199],[28.9752,41.02937],[28.97449,41.02851],[28.97429,41.02848]]]}},{"type":"Feature","properties":{"line":"T3","osm_relations":[2409338]},"geometry":{"type":"MultiLineString","coordinates":[[[29.02155,40.98514],[29.02106,40.98537],[29.02151,40.98643],[29.02157,40.98701],[29.02136,40.98746],[29.02057,40.98876],[29.02056,40.98885],[29.02067,40.98909],[29.0216,40.98978],[29.0224,40.99011],[29.02331,40.99076],[29.02379,40.9913],[29.02397,40.99138],[29.02838,40.99067],[29.02881,40.99058],[29.02908,40.99045]],[[29.02908,40.99045],[29.02914,40.99039],[29.02915,40.99027],[29.02884,40.98937],[29.02854,40.98758],[29.02834,40.98693],[29.02771,40.98552],[29.02767,40.98459],[29.02758,40.98442],[29.02736,40.98433],[29.02706,40.98439],[29.0269,40.98434],[29.02635,40.98357],[29.02625,40.98354],[29.02415,40.98413],[29.02155,40.98514]]]}},{"type":"Feature","properties":{"line":"T4","osm_relations":[11344897]},"geometry":{"type":"MultiLineString","coordinates":[[[28.92278,41.02016],[28.92229,41.01996],[28.92171,41.01983],[28.92016,41.01964]],[[28.92278,41.02016],[28.92384,41.02064],[28.92502,41.02149],[28.92733,41.02359]],[[28.92733,41.02359],[28.92846,41.02469],[28.92985,41.02616],[28.93055,41.02672]],[[28.93055,41.02672],[28.93222,41.02829]],[[28.93222,41.02829],[28.93429,41.03033],[28.93446,41.03061],[28.93444,41.03086],[28.93372,41.03179],[28.93346,41.03228],[28.93332,41.03243]],[[28.93332,41.03243],[28.9324,41.03285],[28.93034,41.03352]],[[28.93034,41.03352],[28.92953,41.03378]],[[28.92953,41.03378],[28.92558,41.03509],[28.92506,41.03531],[28.92457,41.0356],[28.92418,41.03593],[28.9239,41.03627],[28.92206,41.03904]],[[28.92206,41.03904],[28.92112,41.04032],[28.92053,41.04091],[28.91835,41.0425],[28.9175,41.0434],[28.91717,41.04385],[28.91591,41.04614],[28.91481,41.0477],[28.91442,41.04804],[28.91295,41.04896],[28.9125,41.04941],[28.91118,41.05139],[28.91096,41.0518],[28.91081,41.05229],[28.91059,41.05339],[28.91012,41.05451],[28.90969,41.05525],[28.90914,41.05571]],[[28.90914,41.05571],[28.90344,41.05976],[28.90303,41.06013],[28.90275,41.06053],[28.90211,41.0619],[28.90055,41.06486]],[[28.90055,41.06486],[28.90036,41.0651],[28.89806,41.06667],[28.89521,41.06883],[28.89376,41.06979],[28.88915,41.07178],[28.88854,41.07209],[28.88642,41.07352],[28.88534,41.07414],[28.88336,41.07486],[28.8806,41.07598],[28.87978,41.07653],[28.8772,41.0786]],[[28.8772,41.0786],[28.87677,41.079],[28.87469,41.08128]],[[28.87469,41.08128],[28.87399,41.08206]],[[28.87399,41.08206],[28.87102,41.08524],[28.8704,41.08581],[28.86962,41.08635],[28.86636,41.08816],[28.86554,41.08879],[28.86483,41.08956],[28.86463,41.08995],[28.86458,41.09015],[28.86322,41.09688],[28.86291,41.10112],[28.86278,41.10156],[28.8601,41.10727],[28.85735,41.11291],[28.85697,41.11357],[28.85654,41.11402],[28.85602,41.11436],[28.85526,41.11465],[28.85359,41.11514]],[[28.85359,41.11514],[28.8533,41.11519]],[[28.8531,41.11524],[28.8533,41.11519]],[[28.85235,41.11547],[28.8531,41.11524]],[[28.85197,41.11564],[28.85235,41.11547]],[[28.8507,41.11659],[28.85197,41.11564]]]}},{"type":"Feature","properties":{"line":"T5","osm_relations":[12174616]},"geometry":{"type":"MultiLineString","coordinates":[[[28.9613,41.02332],[28.96086,41.02365],[28.95985,41.0248],[28.95961,41.02518],[28.95911,41.02639],[28.95881,41.02673],[28.95762,41.02729],[28.95672,41.02815],[28.95652,41.02828],[28.95611,41.0284],[28.95525,41.02846],[28.9534,41.02889],[28.953,41.02907],[28.95274,41.02924],[28.95192,41.03008],[28.95105,41.03113]],[[28.96237,41.02209],[28.96215,41.02266],[28.96203,41.02284],[28.9618,41.02306],[28.9613,41.02332]],[[28.9705,41.01823],[28.96906,41.01838],[28.96838,41.0186],[28.96715,41.01873],[28.96622,41.01901],[28.96562,41.01927],[28.96478,41.01972],[28.96397,41.02029],[28.96263,41.02159],[28.96237,41.02209]],[[28.95105,41.03113],[28.95063,41.03168],[28.94979,41.03243]],[[28.94979,41.03243],[28.94878,41.03333],[28.94737,41.03474],[28.94678,41.03541],[28.94563,41.03724],[28.94514,41.03811],[28.94475,41.03896],[28.94457,41.03922],[28.94292,41.04013],[28.94151,41.04059],[28.94119,41.04074],[28.94039,41.04134],[28.94005,41.04169],[28.93865,41.04382],[28.93844,41.04423],[28.93817,41.04488],[28.93794,41.04593],[28.93761,41.04711]],[[28.93761,41.04711],[28.93731,41.04759],[28.93527,41.04971],[28.93515,41.04989],[28.93514,41.05012]],[[28.93514,41.05012],[28.93547,41.05207],[28.93633,41.05316],[28.93645,41.05346],[28.93653,41.05404],[28.93672,41.05444],[28.93758,41.05532],[28.93855,41.05595],[28.93919,41.05625],[28.94261,41.05708],[28.94338,41.05739],[28.94469,41.05831],[28.94534,41.05912],[28.94545,41.05938],[28.94546,41.05957],[28.94535,41.05993],[28.94407,41.06179],[28.94376,41.0621],[28.94309,41.06253],[28.94282,41.06278],[28.94247,41.0636],[28.94245,41.06376],[28.94251,41.06409],[28.94377,41.06613],[28.94389,41.06634],[28.94402,41.06674],[28.94401,41.06712],[28.94393,41.06748],[28.9437,41.06785],[28.94322,41.06839],[28.94304,41.06877],[28.94273,41.07097],[28.94276,41.07115],[28.94326,41.07189],[28.94346,41.07206],[28.94523,41.07298],[28.94689,41.07449],[28.94718,41.0746],[28.948,41.07461],[28.94821,41.07467],[28.9484,41.0748],[28.94888,41.07534]],[[28.94888,41.07534],[28.94908,41.07557]],[[28.94908,41.07557],[28.94933,41.07588],[28.94942,41.07611],[28.94954,41.07777],[28.9493,41.08037],[28.94904,41.08163],[28.94868,41.08276],[28.9485,41.08385],[28.94856,41.08423],[28.94881,41.08478],[28.94878,41.0852],[28.94869,41.08545],[28.94858,41.08561],[28.94822,41.08587],[28.94592,41.08676],[28.94553,41.08682],[28.94339,41.08693]]]}},{"type":"Feature","properties":{"line":"F1","osm_relations":[300961]},"geometry":{"type":"MultiLineString","coordinates":[[[28.98653,41.03685],[28.98898,41.03561]],[[28.98898,41.03561],[28.99016,41.03501]],[[28.99016,41.03501],[28.99242,41.03386]]]}},{"type":"Feature","properties":{"line":"F2","osm_relations":[301616]},"geometry":{"type":"MultiLineString","coordinates":[[[28.97399,41.02834],[28.97401,41.02647]],[[28.97401,41.02647],[28.97399,41.0255],[28.97402,41.02523]],[[28.97402,41.02523],[28.97404,41.02286]],[[28.97401,41.02647],[28.97406,41.0262],[28.97402,41.02523]]]}},{"type":"Feature","properties":{"line":"F4","osm_relations":[14738977]},"geometry":{"type":"MultiLineString","coordinates":[[[29.04951,41.08351],[29.04608,41.085]],[[29.04951,41.08351],[29.05078,41.08298]],[[29.05397,41.08154],[29.05078,41.08298]]]}},{"type":"Feature","properties":{"line":"TF1","osm_relations":[9696513]},"geometry":{"type":"MultiLineString","coordinates":[[[28.99034,41.0435],[28.99398,41.04476]]]}},{"type":"Feature","properties":{"line":"TF2","osm_relations":[20170893]},"geometry":{"type":"MultiLineString","coordinates":[[[28.9344,41.04981],[28.93342,41.05335]]]}}]}